{"type": "FeatureCollection", "features": [ {"type": "Feature", "properties": {"norad_id": 41829, "name": "FENGYUN 1C DEB", "group": "fengyun-1c-debris", "lat": -45.81642563790638, "lon": 58.95553404490317, "alt_km": 805.7309404835105, "timestamp": "2025-12-06T14:35:37.417078+00:00", "meta": {"OBJECT_NAME": "FENGYUN 1C DEB", "OBJECT_ID": "1999-025EYG", "EPOCH": "2025-12-06T03:00:58.544640", "MEAN_MOTION": 14.25049328, "ECCENTRICITY": 0.00560738, "INCLINATION": 98.745, "RA_OF_ASC_NODE": 49.3624, "ARG_OF_PERICENTER": 237.9836, "MEAN_ANOMALY": 121.5888, "EPHEMERIS_TYPE": 0, "CLASSIFICATION_TYPE": "U", "NORAD_CAT_ID": 41829, "ELEMENT_SET_NO": 999, "REV_AT_EPOCH": 47213, "BSTAR": 0.0026269455, "MEAN_MOTION_DOT": 6.216e-05, "MEAN_MOTION_DDOT": 0}, "tle": {"line1": "1 41829U 99025EYG 25340.12567760  .00006216  00000+0  26269-2 0  9998", "line2": "2 41829  98.7450  49.3624 0056073 237.9836 121.5888 14.25049328472134"}}, "geometry": {"type": "Point", "coordinates": [58.95553404490317, -45.81642563790638]}}, {"type": "Feature", "properties": {"norad_id": 41830, "name": "FENGYUN 1C DEB", "group": "fengyun-1c-debris", "lat": 74.67796875681067, "lon": -93.1856573620821, "alt_km": 822.3040831920152, "timestamp": "2025-12-06T14:35:37.417088+00:00", "meta": {"OBJECT_NAME": "FENGYUN 1C DEB", "OBJECT_ID": "1999-025EYH", "EPOCH": "2025-12-03T00:14:47.938848", "MEAN_MOTION": 14.2631278, "ECCENTRICITY": 0.00539917, "INCLINATION": 98.7543, "RA_OF_ASC_NODE": 48.9961, "ARG_OF_PERICENTER": 244.4093, "MEAN_ANOMALY": 115.1501, "EPHEMERIS_TYPE": 0, "CLASSIFICATION_TYPE": "U", "NORAD_CAT_ID": 41830, "ELEMENT_SET_NO": 999, "REV_AT_EPOCH": 47135, "BSTAR": 0.0023798513, "MEAN_MOTION_DOT": 5.761e-05, "MEAN_MOTION_DDOT": 0}, "tle": {"line1": "1 41830U 99025EYH 25337.01027707  .00005761  00000+0  23799-2 0  9995", "line2": "2 41830  98.7543  48.9961 0053991 244.4093 115.1501 14.26312780471352"}}, "geometry": {"type": "Point", "coordinates": [-93.1856573620821, 74.67796875681067]}}, {"type": "Feature", "properties": {"norad_id": 41831, "name": "FENGYUN 1C DEB", "group": "fengyun-1c-debris", "lat": -28.357995744966754, "lon": 52.25826267169899, "alt_km": 817.6200976584514, "timestamp": "2025-12-06T14:35:37.417098+00:00", "meta": {"OBJECT_NAME": "FENGYUN 1C DEB", "OBJECT_ID": "1999-025EYJ", "EPOCH": "2025-12-05T03:19:39.166464", "MEAN_MOTION": 14.24480137, "ECCENTRICITY": 0.00558206, "INCLINATION": 98.7353, "RA_OF_ASC_NODE": 46.037, "ARG_OF_PERICENTER": 242.9288, "MEAN_ANOMALY": 116.6188, "EPHEMERIS_TYPE": 0, "CLASSIFICATION_TYPE": "U", "NORAD_CAT_ID": 41831, "ELEMENT_SET_NO": 999, "REV_AT_EPOCH": 47151, "BSTAR": 0.0035324752, "MEAN_MOTION_DOT": 8.283e-05, "MEAN_MOTION_DDOT": 0}, "tle": {"line1": "1 41831U 99025EYJ 25339.13864776  .00008283  00000+0  35325-2 0  9996", "line2": "2 41831  98.7353  46.0370 0055820 242.9288 116.6188 14.24480137471512"}}, "geometry": {"type": "Point", "coordinates": [52.25826267169899, -28.357995744966754]}}, {"type": "Feature", "properties": {"norad_id": 41832, "name": "FENGYUN 1C DEB", "group": "fengyun-1c-debris", "lat": 32.513609859763704, "lon": 39.05232254822741, "alt_km": 843.5102196426642, "timestamp": "2025-12-06T14:35:37.417108+00:00", "meta": {"OBJECT_NAME": "FENGYUN 1C DEB", "OBJECT_ID": "1999-025EYK", "EPOCH": "2025-12-05T03:01:44.450688", "MEAN_MOTION": 14.2414868, "ECCENTRICITY": 0.00551792, "INCLINATION": 98.7305, "RA_OF_ASC_NODE": 43.2015, "ARG_OF_PERICENTER": 247.5645, "MEAN_ANOMALY": 111.9684, "EPHEMERIS_TYPE": 0, "CLASSIFICATION_TYPE": "U", "NORAD_CAT_ID": 41832, "ELEMENT_SET_NO": 999, "REV_AT_EPOCH": 47242, "BSTAR": 0.0034332062, "MEAN_MOTION_DOT": 7.994e-05, "MEAN_MOTION_DDOT": 0}, "tle": {"line1": "1 41832U 99025EYK 25339.12620892  .00007994  00000+0  34332-2 0  9990", "line2": "2 41832  98.7305  43.2015 0055179 247.5645 111.9684 14.24148680472424"}}, "geometry": {"type": "Point", "coordinates": [39.05232254822741, 32.513609859763704]}}, {"type": "Feature", "properties": {"norad_id": 41833, "name": "FENGYUN 1C DEB", "group": "fengyun-1c-debris", "lat": -25.289740237587097, "lon": -133.98608535270014, "alt_km": 779.8301309367125, "timestamp": "2025-12-06T14:35:37.417138+00:00", "meta": {"OBJECT_NAME": "FENGYUN 1C DEB", "OBJECT_ID": "1999-025EYL", "EPOCH": "2025-12-06T03:31:22.072800", "MEAN_MOTION": 14.25727411, "ECCENTRICITY": 0.0054035, "INCLINATION": 98.748, "RA_OF_ASC_NODE": 49.7257, "ARG_OF_PERICENTER": 242.1405, "MEAN_ANOMALY": 117.4294, "EPHEMERIS_TYPE": 0, "CLASSIFICATION_TYPE": "U", "NORAD_CAT_ID": 41833, "ELEMENT_SET_NO": 999, "REV_AT_EPOCH": 47270, "BSTAR": 0.0029322231, "MEAN_MOTION_DOT": 7.029e-05, "MEAN_MOTION_DDOT": 0}, "tle": {"line1": "1 41833U 99025EYL 25340.14678325  .00007029  00000+0  29322-2 0  9991", "line2": "2 41833  98.7480  49.7257 0054035 242.1405 117.4294 14.25727411472708"}}, "geometry": {"type": "Point", "coordinates": [-133.98608535270014, -25.289740237587097]}}, {"type": "Feature", "properties": {"norad_id": 43213, "name": "FENGYUN 1C DEB", "group": "fengyun-1c-debris", "lat": 80.99198530381948, "lon": -59.063240381079346, "alt_km": 839.5718635560825, "timestamp": "2025-12-06T14:35:37.417153+00:00", "meta": {"OBJECT_NAME": "FENGYUN 1C DEB", "OBJECT_ID": "1999-025EYM", "EPOCH": "2025-12-05T11:10:21.916416", "MEAN_MOTION": 14.23777351, "ECCENTRICITY": 0.00540683, "INCLINATION": 98.7349, "RA_OF_ASC_NODE": 43.9148, "ARG_OF_PERICENTER": 248.0804, "MEAN_ANOMALY": 111.4622, "EPHEMERIS_TYPE": 0, "CLASSIFICATION_TYPE": "U", "NORAD_CAT_ID": 43213, "ELEMENT_SET_NO": 999, "REV_AT_EPOCH": 40269, "BSTAR": 0.003007299, "MEAN_MOTION_DOT": 6.941e-05, "MEAN_MOTION_DDOT": 0}, "tle": {"line1": "1 43213U 99025EYM 25339.46553144  .00006941  00000+0  30073-2 0  9996", "line2": "2 43213  98.7349  43.9148 0054068 248.0804 111.4622 14.23777351402691"}}, "geometry": {"type": "Point", "coordinates": [-59.063240381079346, 80.99198530381948]}}, {"type": "Feature", "properties": {"norad_id": 43214, "name": "FENGYUN 1C DEB", "group": "fengyun-1c-debris", "lat": 12.142870072201783, "lon": 43.46112021484383, "alt_km": 837.0885352858595, "timestamp": "2025-12-06T14:35:37.417164+00:00", "meta": {"OBJECT_NAME": "FENGYUN 1C DEB", "OBJECT_ID": "1999-025EYN", "EPOCH": "2025-12-05T21:40:23.018016", "MEAN_MOTION": 14.24055064, "ECCENTRICITY": 0.00550242, "INCLINATION": 98.7366, "RA_OF_ASC_NODE": 44.6566, "ARG_OF_PERICENTER": 246.4159, "MEAN_ANOMALY": 113.1235, "EPHEMERIS_TYPE": 0, "CLASSIFICATION_TYPE": "U", "NORAD_CAT_ID": 43214, "ELEMENT_SET_NO": 999, "REV_AT_EPOCH": 40306, "BSTAR": 0.002798926, "MEAN_MOTION_DOT": 6.495e-05, "MEAN_MOTION_DDOT": 0}, "tle": {"line1": "1 43214U 99025EYN 25339.90304419  .00006495  00000+0  27989-2 0  9991", "line2": "2 43214  98.7366  44.6566 0055024 246.4159 113.1235 14.24055064403063"}}, "geometry": {"type": "Point", "coordinates": [43.46112021484383, 12.142870072201783]}}, {"type": "Feature", "properties": {"norad_id": 43358, "name": "FENGYUN 1C DEB", "group": "fengyun-1c-debris", "lat": 27.080946221842368, "lon": -74.02899396571011, "alt_km": 984.8258665292324, "timestamp": "2025-12-06T14:35:37.417174+00:00", "meta": {"OBJECT_NAME": "FENGYUN 1C DEB", "OBJECT_ID": "1999-025EYP", "EPOCH": "2025-12-05T19:53:14.896032", "MEAN_MOTION": 13.40329475, "ECCENTRICITY": 0.03675246, "INCLINATION": 98.6876, "RA_OF_ASC_NODE": 100.8169, "ARG_OF_PERICENTER": 220.0335, "MEAN_ANOMALY": 137.3174, "EPHEMERIS_TYPE": 0, "CLASSIFICATION_TYPE": "U", "NORAD_CAT_ID": 43358, "ELEMENT_SET_NO": 999, "REV_AT_EPOCH": 53638, "BSTAR": 0.0042797918, "MEAN_MOTION_DOT": 3.442e-05, "MEAN_MOTION_DDOT": 0}, "tle": {"line1": "1 43358U 99025EYP 25339.82864463  .00003442  00000+0  42798-2 0  9995", "line2": "2 43358  98.6876 100.8169 0367524 220.0335 137.3174 13.40329475536385"}}, "geometry": {"type": "Point", "coordinates": [-74.02899396571011, 27.080946221842368]}}, {"type": "Feature", "properties": {"norad_id": 43359, "name": "FENGYUN 1C DEB", "group": "fengyun-1c-debris", "lat": -65.27973147367712, "lon": 80.68792578010402, "alt_km": 830.9132696073666, "timestamp": "2025-12-06T14:35:37.417185+00:00", "meta": {"OBJECT_NAME": "FENGYUN 1C DEB", "OBJECT_ID": "1999-025EYQ", "EPOCH": "2025-12-06T04:46:52.897440", "MEAN_MOTION": 14.23074217, "ECCENTRICITY": 0.00738177, "INCLINATION": 99.0543, "RA_OF_ASC_NODE": 60.0026, "ARG_OF_PERICENTER": 34.2474, "MEAN_ANOMALY": 326.3432, "EPHEMERIS_TYPE": 0, "CLASSIFICATION_TYPE": "U", "NORAD_CAT_ID": 43359, "ELEMENT_SET_NO": 999, "REV_AT_EPOCH": 47656, "BSTAR": 0.0031661039, "MEAN_MOTION_DOT": 7.304e-05, "MEAN_MOTION_DDOT": 0}, "tle": {"line1": "1 43359U 99025EYQ 25340.19922335  .00007304  00000+0  31661-2 0  9999", "line2": "2 43359  99.0543  60.0026 0073817  34.2474 326.3432 14.23074217476562"}}, "geometry": {"type": "Point", "coordinates": [80.68792578010402, -65.27973147367712]}}, {"type": "Feature", "properties": {"norad_id": 45526, "name": "FENGYUN 1C DEB", "group": "fengyun-1c-debris", "lat": -14.899862198372432, "lon": 55.11594382546407, "alt_km": 820.1121976453305, "timestamp": "2025-12-06T14:35:37.417194+00:00", "meta": {"OBJECT_NAME": "FENGYUN 1C DEB", "OBJECT_ID": "1999-025EYR", "EPOCH": "2025-12-05T18:27:16.852320", "MEAN_MOTION": 14.25848902, "ECCENTRICITY": 0.00539393, "INCLINATION": 98.7638, "RA_OF_ASC_NODE": 51.9247, "ARG_OF_PERICENTER": 242.4075, "MEAN_ANOMALY": 117.162, "EPHEMERIS_TYPE": 0, "CLASSIFICATION_TYPE": "U", "NORAD_CAT_ID": 45526, "ELEMENT_SET_NO": 999, "REV_AT_EPOCH": 43277, "BSTAR": 0.0033946035, "MEAN_MOTION_DOT": 8.164e-05, "MEAN_MOTION_DDOT": 0}, "tle": {"line1": "1 45526U 99025EYR 25339.76894505  .00008164  00000+0  33946-2 0  9998", "line2": "2 45526  98.7638  51.9247 0053939 242.4075 117.1620 14.25848902432770"}}, "geometry": {"type": "Point", "coordinates": [55.11594382546407, -14.899862198372432]}}]}